{
  "type": "FeatureCollection",
  "features": [
    {
      "type": "Feature",
      "properties": {
        "norad_id": 38867,
        "name": "INTELSAT 23 (IS-23)",
        "group": "intelsat",
        "lat": 0.028367982508574377,
        "lon": 112.6922909057897,
        "alt_km": 35788.56979999343,
        "timestamp": "2025-12-10T05:46:13.465418+00:00",
        "meta_object_name": "INTELSAT 23 (IS-23)",
        "meta_object_id": "2012-057A",
        "meta_epoch": "2025-12-09T11:36:33.967008",
        "meta_mean_motion": 1.00260409,
        "meta_eccentricity": 0.0002031,
        "meta_inclination": 0.0423,
        "meta_ra_of_asc_node": 93.9741,
        "meta_arg_of_pericenter": 103.251,
        "meta_mean_anomaly": 2.3642,
        "meta_ephemeris_type": 0,
        "meta_classification_type": "U",
        "meta_norad_cat_id": 38867,
        "meta_element_set_no": 999,
        "meta_rev_at_epoch": 4805,
        "meta_bstar": 0,
        "meta_mean_motion_dot": -2.82e-06,
        "meta_mean_motion_ddot": 0,
        "tle_line1": "1 38867U 12057A   25343.48372647 -.00000282  00000+0  00000+0 0  9996",
        "tle_line2": "2 38867   0.0423  93.9741 0002031 103.2510   2.3642  1.00260409 48050"
      },
      "geometry": {
        "type": "Point",
        "coordinates": [
          112.6922909057897,
          0.028367982508574377
        ]
      }
    },
    {
      "type": "Feature",
      "properties": {
        "norad_id": 39360,
        "name": "FM-6",
        "group": "intelsat",
        "lat": 0.004391643830899317,
        "lon": 49.59196415203147,
        "alt_km": 35793.477773465595,
        "timestamp": "2025-12-10T05:46:13.465429+00:00",
        "meta_object_name": "FM-6",
        "meta_object_id": "2013-058A",
        "meta_epoch": "2025-12-09T14:44:01.010112",
        "meta_mean_motion": 1.00269266,
        "meta_eccentricity": 0.0002848,
        "meta_inclination": 0.0074,
        "meta_ra_of_asc_node": 81.1865,
        "meta_arg_of_pericenter": 92.5117,
        "meta_mean_anomaly": 9.7598,
        "meta_ephemeris_type": 0,
        "meta_classification_type": "U",
        "meta_norad_cat_id": 39360,
        "meta_element_set_no": 999,
        "meta_rev_at_epoch": 4417,
        "meta_bstar": 0,
        "meta_mean_motion_dot": -1.4e-07,
        "meta_mean_motion_ddot": 0,
        "tle_line1": "1 39360U 13058A   25343.61390058 -.00000014  00000+0  00000+0 0  9991",
        "tle_line2": "2 39360   0.0074  81.1865 0002848  92.5117   9.7598  1.00269266 44176"
      },
      "geometry": {
        "type": "Point",
        "coordinates": [
          49.59196415203147,
          0.004391643830899317
        ]
      }
    },
    {
      "type": "Feature",
      "properties": {
        "norad_id": 40271,
        "name": "INTELSAT 30 (IS-30)",
        "group": "intelsat",
        "lat": 0.029035651990478823,
        "lon": 70.70291300228506,
        "alt_km": 35781.4665785522,
        "timestamp": "2025-12-10T05:46:13.465441+00:00",
        "meta_object_name": "INTELSAT 30 (IS-30)",
        "meta_object_id": "2014-062A",
        "meta_epoch": "2025-12-09T12:22:48.556128",
        "meta_mean_motion": 1.00269053,
        "meta_eccentricity": 0.00012996,
        "meta_inclination": 0.0144,
        "meta_ra_of_asc_node": 15.4205,
        "meta_arg_of_pericenter": 65.9123,
        "meta_mean_anomaly": 87.8151,
        "meta_ephemeris_type": 0,
        "meta_classification_type": "U",
        "meta_norad_cat_id": 40271,
        "meta_element_set_no": 999,
        "meta_rev_at_epoch": 488,
        "meta_bstar": 0,
        "meta_mean_motion_dot": -1.48e-06,
        "meta_mean_motion_ddot": 0,
        "tle_line1": "1 40271U 14062A   25343.51583977 -.00000148  00000+0  00000+0 0  9991",
        "tle_line2": "2 40271   0.0144  15.4205 0001299  65.9123  87.8151  1.00269053  4885"
      },
      "geometry": {
        "type": "Point",
        "coordinates": [
          70.70291300228506,
          0.029035651990478823
        ]
      }
    },
    {
      "type": "Feature",
      "properties": {
        "norad_id": 40333,
        "name": "DIRECTV 14",
        "group": "intelsat",
        "lat": 0.036656345442816485,
        "lon": 66.60330470576663,
        "alt_km": 35786.43942585162,
        "timestamp": "2025-12-10T05:46:13.465452+00:00",
        "meta_object_name": "DIRECTV 14",
        "meta_object_id": "2014-078B",
        "meta_epoch": "2025-12-09T10:14:01.480992",
        "meta_mean_motion": 1.00285429,
        "meta_eccentricity": 9.851e-05,
        "meta_inclination": 0.0183,
        "meta_ra_of_asc_node": 330.534,
        "meta_arg_of_pericenter": 274.6028,
        "meta_mean_anomaly": 247.5776,
        "meta_ephemeris_type": 0,
        "meta_classification_type": "U",
        "meta_norad_cat_id": 40333,
        "meta_element_set_no": 999,
        "meta_rev_at_epoch": 4014,
        "meta_bstar": 0,
        "meta_mean_motion_dot": -1.25e-06,
        "meta_mean_motion_ddot": 0,
        "tle_line1": "1 40333U 14078B   25343.42640603 -.00000125  00000+0  00000+0 0  9992",
        "tle_line2": "2 40333   0.0183 330.5340 0000985 274.6028 247.5776  1.00285429 40144"
      },
      "geometry": {
        "type": "Point",
        "coordinates": [
          66.60330470576663,
          0.036656345442816485
        ]
      }
    },
    {
      "type": "Feature",
      "properties": {
        "norad_id": 40663,
        "name": "DIRECTV 15",
        "group": "intelsat",
        "lat": 0.0070417094756145,
        "lon": 62.901108495787014,
        "alt_km": 35787.64407500418,
        "timestamp": "2025-12-10T05:46:13.465463+00:00",
        "meta_object_name": "DIRECTV 15",
        "meta_object_id": "2015-026A",
        "meta_epoch": "2025-12-09T14:47:45.651840",
        "meta_mean_motion": 1.0026916,
        "meta_eccentricity": 3e-05,
        "meta_inclination": 0.0395,
        "meta_ra_of_asc_node": 81.8157,
        "meta_arg_of_pericenter": 211.0031,
        "meta_mean_anomaly": 264.8577,
        "meta_ephemeris_type": 0,
        "meta_classification_type": "U",
        "meta_norad_cat_id": 40663,
        "meta_element_set_no": 999,
        "meta_rev_at_epoch": 3856,
        "meta_bstar": 0,
        "meta_mean_motion_dot": -1e-06,
        "meta_mean_motion_ddot": 0,
        "tle_line1": "1 40663U 15026A   25343.61650060 -.00000100  00000+0  00000+0 0  9994",
        "tle_line2": "2 40663   0.0395  81.8157 0000300 211.0031 264.8577  1.00269160 38565"
      },
      "geometry": {
        "type": "Point",
        "coordinates": [
          62.901108495787014,
          0.0070417094756145
        ]
      }
    },
    {
      "type": "Feature",
      "properties": {
        "norad_id": 40664,
        "name": "SKY MEXICO-1",
        "group": "intelsat",
        "lat": 0.02401578610557902,
        "lon": 87.0076441822331,
        "alt_km": 35797.887003869284,
        "timestamp": "2025-12-10T05:46:13.465475+00:00",
        "meta_object_name": "SKY MEXICO-1",
        "meta_object_id": "2015-026B",
        "meta_epoch": "2025-12-09T19:26:25.848096",
        "meta_mean_motion": 1.00270713,
        "meta_eccentricity": 0.0002734,
        "meta_inclination": 0.0268,
        "meta_ra_of_asc_node": 65.0492,
        "meta_arg_of_pericenter": 209.5955,
        "meta_mean_anomaly": 16.991,
        "meta_ephemeris_type": 0,
        "meta_classification_type": "U",
        "meta_norad_cat_id": 40664,
        "meta_element_set_no": 999,
        "meta_rev_at_epoch": 3855,
        "meta_bstar": 0,
        "meta_mean_motion_dot": -2.32e-06,
        "meta_mean_motion_ddot": 0,
        "tle_line1": "1 40664U 15026B   25343.81002139 -.00000232  00000+0  00000+0 0  9991",
        "tle_line2": "2 40664   0.0268  65.0492 0002734 209.5955  16.9910  1.00270713 38553"
      },
      "geometry": {
        "type": "Point",
        "coordinates": [
          87.0076441822331,
          0.02401578610557902
        ]
      }
    },
    {
      "type": "Feature",
      "properties": {
        "norad_id": 40874,
        "name": "INTELSAT 34 (IS-34)",
        "group": "intelsat",
        "lat": 0.01424048074112201,
        "lon": 110.26913559280433,
        "alt_km": 35785.39883612646,
        "timestamp": "2025-12-10T05:46:13.465486+00:00",
        "meta_object_name": "INTELSAT 34 (IS-34)",
        "meta_object_id": "2015-039A",
        "meta_epoch": "2025-12-09T13:18:24.212160",
        "meta_mean_motion": 1.00270174,
        "meta_eccentricity": 5.84e-05,
        "meta_inclination": 0.0128,
        "meta_ra_of_asc_node": 307.095,
        "meta_arg_of_pericenter": 223.5421,
        "meta_mean_anomaly": 52.0138,
        "meta_ephemeris_type": 0,
        "meta_classification_type": "U",
        "meta_norad_cat_id": 40874,
        "meta_element_set_no": 999,
        "meta_rev_at_epoch": 3772,
        "meta_bstar": 0,
        "meta_mean_motion_dot": -2.83e-06,
        "meta_mean_motion_ddot": 0,
        "tle_line1": "1 40874U 15039A   25343.55444690 -.00000283  00000+0  00000+0 0  9997",
        "tle_line2": "2 40874   0.0128 307.0950 0000584 223.5421  52.0138  1.00270174 37726"
      },
      "geometry": {
        "type": "Point",
        "coordinates": [
          110.26913559280433,
          0.01424048074112201
        ]
      }
    }
  ]
}